H1 CPF  1  HTS 2022 12 26 12  8601 larets           NONE
H2  0304206 5557    27944 2022 12 26  0  0  0 2022 12 31  0  0  0   180 1 1  0 0 0
H5  0.0560 
H9 
10 0 59943  20520.00000  0   -2674277.036    1910396.500    6240761.558
10 0 59943  20700.00000  0   -3269365.703    2914107.951    5532663.525
10 0 59943  20880.00000  0   -3720389.131    3825546.626    4621833.041
10 0 59943  21060.00000  0   -4013872.289    4607621.119    3541672.354
10 0 59943  21240.00000  0   -4143003.452    5227704.513    2331786.611
10 0 59943  21420.00000  0   -4107756.847    5659017.604    1036524.474
10 0 59943  21600.00000  0   -3914728.081    5881792.913    -296669.010
10 0 59943  21780.00000  0   -3576693.451    5884166.533   -1619025.548
10 0 59943  21960.00000  0   -3111907.341    5662742.321   -2882281.336
10 0 59943  22140.00000  0   -2543175.533    5222799.932   -4040463.952
10 0 59943  22320.00000  0   -1896766.212    4578147.649   -5051561.025
10 0 59943  22500.00000  0   -1201216.889    3750638.633   -5879007.109
10 0 59943  22680.00000  0    -486096.650    2769387.588   -6492948.835
10 0 59943  22860.00000  0     219226.827    1669717.990   -6871256.543
10 0 59943  23040.00000  0     886762.684     491889.883   -7000258.162
10 0 59943  23220.00000  0    1490977.385    -720347.775   -6875195.472
10 0 59943  23400.00000  0    2009748.696   -1921341.561   -6500393.181
10 0 59943  23580.00000  0    2425164.244   -3065206.922   -5889141.769
10 0 59943  23760.00000  0    2724146.935   -4107552.480   -5063297.289
10 0 59943  23940.00000  0    2898884.866   -5007209.064   -4052580.622
10 0 59943  24120.00000  0    2947042.444   -5727886.245   -2893583.196
10 0 59943  24300.00000  0    2871743.102   -6239699.192   -1628500.671
10 0 59943  24480.00000  0    2681317.511   -6520485.719    -303614.559
10 0 59943  24660.00000  0    2388817.712   -6556833.518    1032426.987
10 0 59943  24840.00000  0    2011317.068   -6344750.304    2330451.446
10 0 59943  25020.00000  0    1569031.746   -5889934.193    3542645.866
10 0 59943  25200.00000  0    1084309.600   -5207622.299    4624383.703
10 0 59943  25380.00000  0     580544.719   -4322036.709    5535910.461
10 0 59943  25560.00000  0      81074.169   -3265458.026    6243823.264
10 0 59943  25740.00000  0    -391885.194   -2076970.879    6722280.402
10 0 59943  25920.00000  0    -818209.494    -800958.726    6953905.648
10 0 59943  26100.00000  0   -1180712.030     514590.164    6930382.121
10 0 59943  26280.00000  0   -1465829.646    1819910.513    6652721.833
10 0 59943  26460.00000  0   -1664126.593    3065353.138    6131207.392
10 0 59943  26640.00000  0   -1770602.043    4203281.094    5385013.609
10 0 59943  26820.00000  0   -1784792.500    5189907.208    4441519.246
10 0 59943  27000.00000  0   -1710667.666    5987009.664    3335321.500
10 0 59943  27180.00000  0   -1556324.541    6563451.605    2106975.483
10 0 59943  27360.00000  0   -1333494.437    6896437.377     801498.944
10 0 59943  27540.00000  0   -1056879.684    6972441.962    -533303.255
10 0 59943  27720.00000  0    -743357.663    6787767.479   -1848626.356
10 0 59943  27900.00000  0    -411092.723    6348687.738   -3096492.659
10 0 59943  28080.00000  0     -78608.615    5671177.301   -4231518.092
10 0 59943  28260.00000  0     236132.422    4780264.553   -5212550.775
10 0 59943  28440.00000  0     516602.013    3709043.723   -6004126.789
10 0 59943  28620.00000  0     748488.604    2497396.474   -6577695.030
10 0 59943  28800.00000  0     920356.312    1190484.406   -6912578.156
10 0 59943  28980.00000  0    1024157.316    -162921.572   -6996657.588
10 0 59943  29160.00000  0    1055581.174   -1512224.966   -6826778.548
10 0 59943  29340.00000  0    1014229.807   -2806846.059   -6408866.569
10 0 59943  29520.00000  0     903615.830   -3998072.858   -5757764.336
10 0 59943  29700.00000  0     730979.475   -5040883.256   -4896778.279
10 0 59943  29880.00000  0     506929.463   -5895669.807   -3856926.000
10 0 59943  30060.00000  0     244916.129   -6529806.075   -2675894.561
10 0 59943  30240.00000  0     -39444.668   -6918981.308   -1396723.147
10 0 59943  30420.00000  0    -329168.411   -7048232.522     -66243.868
10 0 59943  30600.00000  0    -606782.727   -6912603.334    1266663.936
10 0 59943  30780.00000  0    -855246.388   -6517387.278    2552927.448
10 0 59943  30960.00000  0   -1058856.154   -5877932.671    3745161.720
10 0 59943  31140.00000  0   -1204087.867   -5019009.657    4799482.374
10 0 59943  31320.00000  0   -1280329.579   -3973784.685    5677158.342
10 0 59943  31500.00000  0   -1280468.858   -2782464.221    6346046.682
10 0 59943  31680.00000  0   -1201304.889   -1490670.962    6781750.598
10 0 59943  31860.00000  0   -1043769.250    -147644.399    6968469.500
10 0 59943  32040.00000  0    -812954.156    1195667.558    6899534.304
10 0 59943  32220.00000  0    -517941.873    2488556.729    6577617.759
10 0 59943  32400.00000  0    -171440.169    3682476.636    6014619.386
10 0 59943  32580.00000  0     210758.376    4732874.404    5231230.568
10 0 59943  32760.00000  0     610474.144    5600873.379    4256191.141
10 0 59943  32940.00000  0    1007969.098    6254744.295    3125251.203
10 0 59943  33120.00000  0    1382871.910    6671108.762    1879873.646
10 0 59943  33300.00000  0    1715161.115    6835819.390     565695.869
10 0 59943  33480.00000  0    1986149.913    6744452.840    -769175.918
10 0 59943  33660.00000  0    2179424.655    6402402.774   -2075962.874
10 0 59943  33840.00000  0    2281689.067    5824574.783   -3307024.376
10 0 59943  34020.00000  0    2283473.905    5034700.905   -4417610.239
10 0 59943  34200.00000  0    2179675.956    4064308.822   -5367477.692
10 0 59943  34380.00000  0    1969902.746    2951410.819   -6122307.333
10 0 59943  34560.00000  0    1658613.695    1738983.145   -6654881.133
10 0 59943  34740.00000  0    1255055.472     473302.206   -6945994.404
10 0 59943  34920.00000  0     772997.747    -797796.950   -6985092.515
10 0 59943  35100.00000  0     230273.483   -2026688.025   -6770624.394
10 0 59943  35280.00000  0    -351858.906   -3167690.703   -6310110.863
10 0 59943  35460.00000  0    -949518.556   -4178740.176   -5619931.931
10 0 59943  35640.00000  0   -1537148.716   -5022940.606   -4724818.277
10 0 59943  35820.00000  0   -2088579.390   -5669951.249   -3657050.393
10 0 59943  36000.00000  0   -2578170.049   -6097147.929   -2455365.434
10 0 59943  36180.00000  0   -2981981.719   -6290500.776   -1163594.947
10 0 59943  36360.00000  0   -3278923.056   -6245119.165     170930.915
10 0 59943  36540.00000  0   -3451806.806   -5965417.257    1499156.669
10 0 59943  36720.00000  0   -3488254.651   -5464879.864    2772170.091
10 0 59943  36900.00000  0   -3381398.188   -4765435.674    3943076.199
10 0 59943  37080.00000  0   -3130336.695   -3896473.876    4968785.106
10 0 59943  37260.00000  0   -2740330.123   -2893558.458    5811633.348
10 0 59943  37440.00000  0   -2222719.007   -1796912.991    6440770.436
10 0 59943  37620.00000  0   -1594579.030    -649757.624    6833267.862
10 0 59943  37800.00000  0    -878127.880     503433.709    6974918.045
10 0 59943  37980.00000  0     -99917.165    1618675.195    6860704.800
10 0 59943  38160.00000  0     710164.917    2654153.350    6494956.439
10 0 59943  38340.00000  0    1520049.591    3571798.753    5891172.165
10 0 59943  38520.00000  0    2296758.459    4338692.773    5071532.503
10 0 59943  38700.00000  0    3007748.241    4928267.444    4066103.099
10 0 59943  38880.00000  0    3622277.132    5321248.573    2911747.662
10 0 59943  39060.00000  0    4112737.901    5506311.191    1650783.669
10 0 59943  39240.00000  0    4455892.292    5480405.908     329410.992
10 0 59943  39420.00000  0    4633939.084    5248740.928   -1004012.980
10 0 59943  39600.00000  0    4635365.866    4824415.842   -2300780.905
10 0 59943  39780.00000  0    4455542.442    4227735.166   -3513641.708
10 0 59943  39960.00000  0    4097026.059    3485241.092   -4598532.926
10 0 59943  40140.00000  0    3569568.858    2628518.098   -5516163.273
10 0 59943  40320.00000  0    2889837.774    1692835.432   -6233391.215
10 0 59943  40500.00000  0    2080862.935     715692.411   -6724358.194
10 0 59943  40680.00000  0    1171245.400    -264668.446   -6971350.534
10 0 59943  40860.00000  0     194157.145   -1210726.602   -6965387.844
10 0 59943  41040.00000  0    -813842.447   -2087084.245   -6706526.543
10 0 59943  41220.00000  0   -1814135.075   -2861759.534   -6203880.271
10 0 59943  41400.00000  0   -2767486.532   -3507343.675   -5475352.404
10 0 59943  41580.00000  0   -3635562.730   -4001984.986   -4547078.468
10 0 59943  41760.00000  0   -4382476.602   -4330168.445   -3452572.944
10 0 59943  41940.00000  0   -4976299.663   -4483250.265   -2231585.700
10 0 59943  42120.00000  0   -5390470.182   -4459717.574    -928693.228
10 0 59943  42300.00000  0   -5605023.089   -4265150.156     408333.285
10 0 59943  42480.00000  0   -5607571.206   -3911878.258    1730321.586
10 0 59943  42660.00000  0   -5393973.043   -3418343.483    2988577.311
10 0 59943  42840.00000  0   -4968643.786   -2808192.622    4136750.374
10 0 59943  43020.00000  0   -4344495.075   -2109157.984    5132600.765
10 0 59943  43200.00000  0   -3542508.438   -1351785.124    5939580.473
10 0 59943  43380.00000  0   -2590977.508    -568081.813    6528172.707
10 0 59943  43560.00000  0   -1524451.104     209853.195    6876949.950
10 0 59943  43740.00000  0    -382427.899     951154.210    6973310.918
10 0 59943  43920.00000  0     792133.839    1627412.761    6813896.927
10 0 59943  44100.00000  0    1954445.279    2213766.889    6404685.234
10 0 59943  44280.00000  0    3059601.035    2689815.092    5760758.291
10 0 59943  44460.00000  0    4064322.388    3040327.947    4905761.023
10 0 59943  44640.00000  0    4928668.706    3255736.668    3871050.965
10 0 59943  44820.00000  0    5617652.367    3332380.689    2694566.233
99
